GLOBALSTAR M067 [+]     
1 32263U 07048A   23302.44212133 -.00000074  00000+0  17425-3 0  9998
2 32263  51.9747 341.9963 0001116 136.0629 330.6027 12.40633308735659
GLOBALSTAR M070 [+]     
1 32264U 07048B   23302.90573355 -.00000051  00000+0  29717-3 0  9998
2 32264  51.9727 144.9576 0000685 106.2392   1.8512 12.62281274738367
GLOBALSTAR M068 [-]     
1 32266U 07048D   23302.77505832 -.00000039  00000+0  35917-3 0  9995
2 32266  51.9891 320.2349 0000517 267.5304 264.5389 12.62769496742201
GLOBALSTAR M079 [+]     
1 37188U 10054A   23303.09736926 -.00000072  00000+0  17500-3 0  9995
2 37188  52.0016 154.3803 0001146  83.2719  57.7947 12.62269518601850
GLOBALSTAR M074 [+]     
1 37189U 10054B   23302.79363247 -.00000069  00000+0  19650-3 0  9998
2 37189  51.9995 154.7193 0000948  88.2489 352.3714 12.62271586601741
GLOBALSTAR M076 [+]     
1 37190U 10054C   23302.90415727 -.00000056  00000+0  26867-3 0  9998
2 37190  52.0007 154.5005 0001422 102.0915   0.4212 12.62262984601472
GLOBALSTAR M077 [+]     
1 37191U 10054D   23302.90086295 -.00000105  00000+0 -66989-5 0  9990
2 37191  52.0050 111.1937 0000888 102.6565  43.9696 12.62267998602587
